C/2021 A6 (PANSTARRS),e,75.6018,164.0737,351.6350,9188,0.0000011,0.99913733,0.0000,05/03.2553/2021,2000,g 11.5,4.0
# From MPEC 2022-M88
C/2021 A7 (NEOWISE),e,78.1544,154.5010,356.0072,2254,0.0000092,0.99912771,0.0000,07/15.1850/2021,2000,g 10.0,4.0
# From MPEC 2023-KD6
C/2021 A9 (PANSTARRS),h,12/01.6664/2023,158.0174,314.8400,211.4624,1.002014,7.760076,2000,6.0,4.0
# From MPEC 2021-N06
C/2021 A10 (NEOWISE),e,151.9303,188.6888,82.3729,87.71075,0.0011998,0.98560629,0.0000,03/15.0450/2021,2000,g 19.0,4.0
# From MPEC 2022-L66
C/2021 B2 (PANSTARRS),e,38.0848,120.5191,334.9825,363.6249,0.0001421,0.99309212,0.0000,05/04.3866/2021,2000,g 14.0,4.0
# From MPEC 2021-N06
C/2021 B3 (NEOWISE),e,119.4811,67.2851,293.5378,34.45502,0.0048733,0.93728044,3.9937,06/08.0/2023,2000,g 13.5,4.0
# From MPEC 2023-KD6
C/2021 C1 (Rankin),e,143.0448,186.8958,336.2275,7627,0.0000015,0.99954408,0.0000,12/06.8956/2020,2000,g 11.5,4.0
# From MPEC 2021-U31
P/2021 C2 (PANSTARRS),e,21.9359,66.4602,78.7214,9.534839,0.0334760,0.48742332,27.9325,06/08.0/2023,2000,g 12.0,4.0
# From MPEC 2021-N06
C/2021 C3 (Catalina),e,122.1657,181.9235,357.0702,61.85427,0.0020260,0.96323142,1.7138,06/08.0/2023,2000,g 14.0,4.0
# From MPEC 2022-M88
C/2021 C4 (ATLAS),e,132.8531,194.2770,320.1895,114451,0.0000000,0.99996067,0.0000,01/17.0086/2021,2000,g  9.0,4.0
# From MPEC 2023-J95
C/2021 C5 (PANSTARRS),e,50.7820,323.6803,270.9232,2298,0.0000089,0.99858906,0.0000,02/11.0735/2023,2000,g  9.0,4.0
# From MPEC 2022-YB4
C/2021 C6 (Lemmon),h,11/13.3374/2021,164.6230,332.1941,203.6597,1.001111,3.274522,2000,12.0,4.0
# From MPEC 2022-F14
C/2021 D1 (SWAN),e,31.4241,311.2315,72.2981,100.3919,0.0009798,0.99100993,0.0000,02/27.7491/2021,2000,g 13.0,4.0
# From MPEC 2023-J29
C/2021 D2 (ZTF),h,02/03.9780/2022,83.8133,305.6767,125.0275,1.001692,2.946281,2000,9.0,4.0
# From MPEC 2022-UY9
A/2021 E2,e,167.4884,190.8185,342.3777,223.7760,0.0002944,0.98979077,0.0000,12/10.3473/2020,2000,g 15.0,2.0
# From MPEC 2023-J29
C/2021 E3 (ZTF),h,06/11.8944/2022,112.5487,104.4768,228.8487,1.000832,1.777338,2000,8.5,4.0
# From MPEC 2022-UY9
A/2021 E4,e,116.3610,171.1695,48.2624,585.0660,0.0000696,0.99200767,0.0000,04/25.1662/2022,2000,g 13.5,2.0
# From MPEC 2022-QD9
C/2021 F1 (Lemmon-PANSTARRS),e,107.3263,203.4538,146.8295,229.1465,0.0002841,0.99565405,0.0000,04/06.8307/2022,2000,g 13.5,4.0
# From MPEC 2021-J72
C/2021 G1 (Leonard),e,131.5480,270.6988,107.4514,73.89383,0.0015516,0.95367185,1.0645,06/08.0/2023,2000,g 14.0,4.0
# From MPEC 2023-L37
C/2021 G2 (ATLAS),e,48.4740,221.0960,343.3222,7855,0.0000014,0.99936583,0.0000,09/09.5860/2024,2000,g  5.5,4.0
# From MPEC 2022-X67
C/2021 G3 (PANSTARRS),h,10/18.1532/2021,102.8736,147.4048,10.5990,1.000132,5.180203,2000,10.5,4.0
# From MPEC 2021-Y10
P/2021 HS (PANSTARRS),e,12.1624,262.3805,46.1207,4.194576,0.1147287,0.80982719,76.9592,06/08.0/2023,2000,g 22.0,4.0
# From MPEC 2022-C56
C/2021 J1 (Maury-Attard),e,92.7205,88.3679,147.3192,26.37682,0.0072756,0.93401335,6.1014,06/08.0/2023,2000,g 15.5,4.0
# From MPEC 2023-KD6
C/2021 J2 (PANSTARRS),e,156.2131,23.3351,172.0159,117.3416,0.0007754,0.95990452,0.4837,06/08.0/2023,2000,g 12.0,4.0
# From MPEC 2021-S45
P/2021 J3 (ATLAS),e,14.5315,111.1473,126.0010,8.929542,0.0369369,0.44920184,53.0103,06/08.0/2023,2000,g  7.0,4.0
# From MPEC 2022-O08
C/2021 K1 (ATLAS),e,16.2753,140.9065,184.2780,12.66805,0.0218594,0.80274568,16.7183,06/08.0/2023,2000,g 11.0,4.0
# From MPEC 2022-O01
C/2021 K2 (MASTER),h,09/09.4717/2021,100.8615,282.2546,343.3617,1.001088,5.467882,2000,8.0,4.0
# From MPEC 2022-L66
C/2021 K3 (Catalina),h,02/03.1610/2022,134.7839,114.4625,182.0539,1.003424,5.230019,2000,10.0,4.0
# From MPEC 2021-W31
P/2021 L2 (Leonard),e,21.0682,266.6571,51.5088,4.048930,0.1209745,0.52110169,82.7185,06/08.0/2023,2000,g 17.0,4.0
# From MPEC 2023-L37
C/2021 L3 (Borisov),h,02/14.1474/2022,78.5763,344.9794,91.6133,1.003515,8.458035,2000,10.1,4.0
# From MPEC 2022-TA0
P/2021 N1 (ZTF),e,11.4969,301.1619,21.2272,2.978041,0.1917821,0.67635676,140.3096,06/08.0/2023,2000,g 19.0,4.0
# From MPEC 2023-L37
P/2021 N2 (Fuls),e,13.0613,221.7354,177.4550,6.938195,0.0539305,0.45257478,30.7997,06/08.0/2023,2000,g 10.8,4.0
# From MPEC 2022-YB4
C/2021 N3 (PANSTARRS),e,26.7410,337.4934,304.7602,151.4843,0.0005286,0.96226026,0.5406,06/08.0/2023,2000,g  8.5,4.0
# From MPEC 2022-A21
C/2021 O1 (Nishimura),e,27.5881,41.6210,74.3940,2383,0.0000085,0.99967049,0.0000,08/14.0306/2021,2000,g 10.5,4.0
# From MPEC 2022-L66
C/2021 O3 (PANSTARRS),h,04/21.0520/2022,56.7942,189.0118,299.9672,1.000060,0.286972,2000,10.5,4.0
# From MPEC 2022-CN4
C/2021 P1 (PANSTARRS),e,51.6367,359.6777,40.4647,2523,0.0000078,0.99826608,0.0000,06/02.3916/2022,2000,g 11.0,4.0
# From MPEC 2023-KD6
C/2021 P2 (PANSTARRS),e,150.0635,32.0803,76.6984,2656,0.0000072,0.99809168,0.0000,01/22.7673/2023,2000,g  9.0,4.0
# From MPEC 2021-W31
P/2021 P3 (PANSTARRS),e,27.1616,358.2400,334.0921,4.412386,0.1063393,0.33906652,78.5722,06/08.0/2023,2000,g 14.0,4.0
# From MPEC 2023-A50
C/2021 P4 (ATLAS),e,56.3115,348.0899,175.8092,309.5746,0.0001809,0.99651041,0.0000,07/30.3525/2022,2000,g  9.5,4.0
# From MPEC 2023-E68
P/2021 PE20 (ATLAS),e,20.0089,99.6314,210.4666,3.745707,0.1359576,0.67031238,99.3923,06/08.0/2023,2000,g 17.0,4.0
# From MPEC 2023-FK0
C/2021 Q3 (ATLAS),e,77.7602,307.9133,114.1023,75.63504,0.0014984,0.93118427,0.7458,06/08.0/2023,2000,g  8.0,4.0
# From MPEC 2023-KD6
C/2021 Q4 (Fuls),h,06/10.6198/2023,71.4750,183.3320,147.0108,1.003190,7.564603,2000,6.0,4.0
# From MPEC 2022-C56
P/2021 Q5 (ATLAS),e,10.7387,239.7494,180.9251,3.286677,0.1654126,0.62454046,106.9235,06/08.0/2023,2000,g 15.0,4.0
# From MPEC 2023-CD7
C/2021 Q6 (PANSTARRS),e,161.8469,133.5372,140.9652,126538,0.0000000,0.99993118,0.0000,03/24.0156/2024,2000,g  6.0,4.0
# From MPEC 2023-FK0
C/2021 QM45 (PANSTARRS),e,22.8217,354.5911,72.8232,365.8172,0.0001409,0.99241819,0.0000,08/13.5082/2022,2000,g 11.0,4.0
# From MPEC 2022-X67
P/2021 R1 (PANSTARRS),e,5.5190,143.3305,220.3350,8.334796,0.0409602,0.41378272,22.0585,06/08.0/2023,2000,g 11.0,4.0
# From MPEC 2022-X67
C/2021 R2 (PANSTARRS),e,134.4820,16.2973,32.4470,2636,0.0000073,0.99722546,0.0000,12/26.9426/2021,2000,g  7.5,4.0
# From MPEC 2021-W31
P/2021 R3 (PANSTARRS),e,19.9292,304.2002,2.7714,3.772212,0.1345271,0.33109719,99.9595,06/08.0/2023,2000,g 16.0,4.0
# From MPEC 2021-W31
P/2021 R4 (Wierzchos),e,21.0347,321.2625,56.6920,5.622204,0.0739340,0.58601120,44.5038,06/08.0/2023,2000,g 16.0,4.0
# From MPEC 2022-Y15
P/2021 R5 (Rankin),e,7.8546,219.9574,167.4466,4.793878,0.0939017,0.30666816,48.0340,06/08.0/2023,2000,g 12.0,4.0
# From MPEC 2021-W31
P/2021 R6 (Groeller),e,34.9250,176.1173,220.7978,6.280640,0.0626179,0.59343654,36.5623,06/08.0/2023,2000,g 14.5,4.0
# From MPEC 2022-X67
C/2021 R7 (PANSTARRS),e,158.8522,170.1496,140.2822,874.5860,0.0000381,0.99353890,0.0000,04/16.5687/2021,2000,g 10.5,4.0
# From MPEC 2021-Y10
P/2021 R8 (Sheppard),e,2.2034,167.0268,190.8372,3.017925,0.1879929,0.29342594,114.3936,06/08.0/2023,2000,g 18.5,4.0
# From MPEC 2023-J29
C/2021 S1 (ATLAS),h,03/01.1406/2022,52.0703,299.8774,148.1993,1.002049,6.119494,2000,7.0,4.0
# From MPEC 2023-L37
C/2021 S3 (PANSTARRS),h,02/14.7262/2024,58.5334,215.6222,6.8669,1.000119,1.320050,2000,5.5,4.0
# From MPEC 2023-E68
C/2021 S4 (Tsuchinshan),e,17.4797,5.4955,72.8244,164.7364,0.0004661,0.95938988,359.9031,06/08.0/2023,2000,g  6.5,4.0
# From MPEC 2022-OB6
C/2021 T1 (Lemmon),e,140.3550,56.8288,51.5435,1368,0.0000195,0.99776304,0.0000,10/14.1334/2021,2000,g 12.5,4.0
# From MPEC 2023-A50
C/2021 T2 (Fuls),h,06/07.9207/2022,117.5362,223.2327,263.5987,1.000374,1.247667,2000,12.0,4.0
# From MPEC 2023-L37
C/2021 T4 (Lemmon),e,160.7766,257.8833,329.8190,8839,0.0000012,0.99983219,0.0000,07/31.5322/2023,2000,g 10.5,4.0
# From MPEC 2022-ED3
P/2021 U1 (Wierzchos),e,30.5539,246.7727,145.1222,8.523661,0.0396064,0.71297535,24.3532,06/08.0/2023,2000,g 14.5,4.0
# From MPEC 2022-L66
P/2021 U3 (Attard-Maury),e,69.9595,75.0943,335.2474,4.192931,0.1147962,0.54982789,67.8588,06/08.0/2023,2000,g 15.5,4.0
# From MPEC 2021-W31
C/2021 U4 (Leonard),e,152.8825,241.8092,237.3033,44.86095,0.0032802,0.96013843,1.7485,06/08.0/2023,2000,g 17.0,4.0
# From MPEC 2022-WQ9
C/2021 U5 (Catalina),e,39.0493,182.7522,321.4411,216.8280,0.0003087,0.98910526,0.0000,01/26.5807/2022,2000,g 13.0,4.0
# From MPEC 2022-CN4
C/2021 V1 (Rankin),e,71.4540,207.6537,195.1349,610.6928,0.0000653,0.99506449,0.0000,04/30.4441/2022,2000,g 13.0,4.0
# From MPEC 2023-KD6
P/2021 V2 (Fuls),e,12.6942,232.2805,259.8328,9.062456,0.0361273,0.61416605,4.9704,06/08.0/2023,2000,g 10.0,4.0
# From MPEC 2023-G31
C/2021 X1 (Maury-Attard),h,05/27.3861/2023,140.1173,10.5885,334.6114,1.001152,3.233651,2000,7.0,4.0
# From MPEC 2023-A50
A/2021 X2,h,07/08.0442/2022,137.1614,228.8225,193.2821,1.000810,2.994349,2000,16.0,2.0
# From MPEC 2023-L37
C/2021 Y1 (ATLAS),h,04/30.7107/2023,77.1908,244.7706,245.8193,1.000855,2.032395,2000,7.0,4.0
# From MPEC 2022-YN2
C/2022 A1 (Sarneczky),e,116.5095,285.5241,201.2247,350.4914,0.0001502,0.99642475,0.0000,01/31.1234/2022,2000,g 18.0,4.0
# From MPEC 2023-L37
C/2022 A2 (PANSTARRS),h,02/18.2750/2023,108.1458,171.5807,88.3714,1.000442,1.735340,2000,9.5,4.0
# From MPEC 2023-L37
C/2022 A3 (Lemmon-ATLAS),e,88.3450,325.4819,234.8471,908.9196,0.0000360,0.99592542,0.0000,09/28.8467/2023,2000,g  8.0,4.0
# From MPEC 2022-K19
P/2022 B1 (Wierzchos),e,10.9899,148.8403,325.4747,5.466417,0.0771170,0.65313236,36.0622,06/08.0/2023,2000,g 16.5,4.0
# From MPEC 2022-YB4
A/2022 B3,e,132.0509,286.1825,150.6885,848.5765,0.0000399,0.99564117,0.0000,01/17.5241/2022,2000,g 16.5,2.0
# From MPEC 2022-GA9
C/2022 B4 (Bok),e,20.0437,340.6456,152.9378,380.7376,0.0001327,0.99637883,0.0000,01/29.9126/2022,2000,g 21.0,4.0
# From MPEC 2023-J29
P/2022 BV9 (Lemmon),e,11.9332,337.3022,16.2398,4.361204,0.1082167,0.23472361,103.5667,06/08.0/2023,2000,g  9.5,4.0
# From MPEC 2023-J29
P/2022 C1 (PANSTARRS),e,4.7622,113.1357,9.3366,7.223009,0.0507723,0.44831090,29.4805,06/08.0/2023,2000,g 12.0,4.0
# From MPEC 2022-OB6
